,FacilityID,RouteID,Province,City,Street,Number,Cap,Location
0,,,TRENTO,ALA,LARGO VICENTINI,42,38061,0
1,,,TRENTO,ALA,PIAZZA VITTORIO VENETO,1,38061,1
2,,,TRENTO,ALA,VIA BIASI,5,38061,2
3,,,TRENTO,ALA,LOC. FRATTE,,38061,3
4,,,TRENTO,ALA,LOC. SEGA 17,17,38061,4
5,,,TRENTO,ALA,CORSO G. CANTORE,34,38061,5
6,,,TRENTO,ALDENO,P.ZZA G.SEGANTINI,7,38060,6
7,,,TRENTO,ANDALO,VIALE DEL PARCO,4,38010,7
8,,,TRENTO,ANDALO,VIA PAGANELLA,42,38010,8
9,,,TRENTO,ANDALO,VIA PAGANELLA,46,38010,9
10,,,TRENTO,ANDALO,VIA TRENTO,21,38010,10
11,,,TRENTO,ANDALO,VIA FOVO,1,38010,11
12,,,TRENTO,ANDALO,VIA DEL MORO,12,38010,12
13,,,TRENTO,ANDALO,VIA CLAMER,21,38010,13
14,,,TRENTO,ANDALO,VIA TENAGLIA,3,38010,14
15,,,TRENTO,ANDALO,VIA PERLI,26,38010,15
16,,,TRENTO,ANDALO,VIA S. ROCCO,9,38010,16
17,,,TRENTO,ARCO,VIA VERGOLANO,10,38062,17
18,,,TRENTO,ARCO,VIA CERERE,3,38062,18
19,,,TRENTO,ARCO,LOC. SAN GIOVANNI AL MONTE,1,38062,19
20,,,TRENTO,ARCO,FRAZ. LINFANO,56,38062,20
21,,,TRENTO,ARCO,VIA FOSSA GRANDE,1,38062,21
22,,,TRENTO,ARCO,VIA S. MARCELLO,21,38062,22
23,,,TRENTO,ARCO,VIALE MAGNOLIE,29,38062,23
24,,,TRENTO,ARCO,VIA LINFANO,50,38062,24
25,,,TRENTO,ARCO,VIA LINFANO,54,38062,25
26,,,TRENTO,ARCO,VIA S. ANNA 19/B,19/B,38062,26
27,,,TRENTO,ARCO,VIA SANTA CATERINA,91,38062,27
28,,,TRENTO,ARCO,VIA SCALETTA,5,38062,28
29,,,TRENTO,ARCO,VIA VERGOLANO,53,38062,29
30,,,TRENTO,ARCO,VIA NARZELLE,23,38062,30
31,,,TRENTO,ARCO,VIA CACCIATORE,16/B,38062,31
32,,,TRENTO,ARCO,PIAZZA GIACOMO POVOLI,5,38062,32
33,,,TRENTO,ARCO,VIA SEGANTINI,98,38062,33
34,,,TRENTO,ARCO,VIA GOITO,6,38062,34
35,,,TRENTO,ARCO,VIA SCUDERIE,4,38062,35
36,,,TRENTO,ARCO,LOCALITA' GAZZI,8,38062,36
37,,,TRENTO,ARCO,VIA SOCCESURE,1,38062,37
38,,,TRENTO,ARCO,LOC. VELO,15,38062,38
39,,,TRENTO,ARCO,VIA MARCONI,27,38062,39
40,,,TRENTO,ARCO,VIA MONTE BRIONE,40,38062,40
41,,,TRENTO,ARCO,VIA LINFANO,5,38062,41
42,,,TRENTO,ARCO,VIA CARBONARI,5,38062,42
43,,,TRENTO,ARCO,VIA VERGOLANO,3,38062,43
44,,,TRENTO,ARCO,VIA MANTOVA,17,38062,44
45,,,TRENTO,ARCO,LOC. GAZZI,43,38062,45
46,,,TRENTO,ARCO,VIA S. MARCELLO,9,38062,46
47,,,TRENTO,ARCO,VIA MONTE GRAPPA,15,38062,47
48,,,TRENTO,ARCO,VIA FRISONI,14,38062,48
49,,,TRENTO,ARCO,VIA MONTE SANTO,9,38062,49
50,,,TRENTO,ARCO,VIA GARDESANA,31,38062,50
51,,,TRENTO,ARCO,VIA LEGIONARI CECOSLOVACCHI,12,38062,51
52,,,TRENTO,ARCO,VIA GARDESANA,13,38062,52
53,,,TRENTO,ARCO,VIA LEGIONARI CECOSLOVACCHI,24,38062,53
54,,,TRENTO,ARCO,VIA DAMIANO CHIESA,2,38062,54
55,,,TRENTO,ARCO,VIA PASSIRONE,68,38062,55
56,,,TRENTO,ARCO,VIA LINFANO,45,38062,56
57,,,TRENTO,ARCO,VIA FOSSA GRANDE,18,38062,57
58,,,TRENTO,ARCO,VIA RONCHI,4,38062,58
59,,,TRENTO,ARCO,VIA LEGIONARI CECOSLOVACCHI,30,38062,59
60,,,TRENTO,ARCO,PIAZZA TRENTO,6,38062,60
61,,,TRENTO,ARCO,VIA CERERE,3,38062,61
62,,,TRENTO,ARCO,VIA LINFANO,55,38062,62
63,,,TRENTO,ARCO,VIA S. ANNA,32,38062,63
64,,,TRENTO,ARCO,VIA S. CATERINA,7,38062,64
65,,,TRENTO,ARCO,LOC. LAGHEL,,38062,65
66,,,TRENTO,ARCO,VIA DEL MOLINO,16,38062,66
67,,,TRENTO,ARCO,VIA LINFANO,20,38062,67
68,,,TRENTO,ARCO,VIA FOSSA GRANDE,8,38062,68
69,,,TRENTO,AVIO,VIALE A. DEGASPERI,17,38063,69
70,,,TRENTO,AVIO,VIA VALLE DEI MOLINI,10,38063,70
71,,,TRENTO,AVIO,VIA CASTELBARCO,11,38063,71
72,,,TRENTO,AVIO,LOC. MADONNA DELLA NEVE,,38063,72
73,,,TRENTO,BASELGA DI PINE',LOC. MASI DI STERNIGO,16/A,38042,73
74,,,TRENTO,BASELGA DI PINE',VIA DELLA CRÃÂS,9,38042,74
75,,,TRENTO,BASELGA DI PINE',VIA DELLA CHIESA,2,38042,75
76,,,TRENTO,BASELGA DI PINE',VIA MIRALAGO,45,38042,76
77,,,TRENTO,BASELGA DI PINE',LOC. BERNARDI,11,38040,77
78,,,TRENTO,BASELGA DI PINE',VIA STERNIGO AL LAGO,25,38042,78
79,,,TRENTO,BASELGA DI PINE',VIA AL FIORE,3,38042,79
80,,,TRENTO,BEDOLLO,VIA DEI SONTENI,6,38043,80
81,,,TRENTO,BEDOLLO,VIA MASSENZI,2,38043,81
82,,,TRENTO,BEDOLLO,VIA CAVOUR,17,38043,82
83,,,TRENTO,BEDOLLO,VIA CAVOUR,13,38043,83
84,,,TRENTO,BESENELLO,VIA ROMA,45,38060,84
85,,,TRENTO,BIENO,LOC. ZUNAGHE,,38050,85
86,,,TRENTO,BIENO,VICOLO BUSARELLO,10,38050,86
87,,,TRENTO,BIENO,PIAZZA ALPINI,1,38050,87
88,,,TRENTO,BIENO,VIA AMM. GIOVANNI BETTOLO,16,38050,88
89,,,TRENTO,BLEGGIO SUPERIORE,LOC. PASSO DURONE,1,38071,89
90,,,TRENTO,BLEGGIO SUPERIORE,FRAZ. CAVRASTO,74,38071,90
91,,,TRENTO,BLEGGIO SUPERIORE,FRAZ. RANGO,117,38071,91
92,,,TRENTO,BLEGGIO SUPERIORE,FRAZ. MADICE,15,38071,92
93,,,TRENTO,BOCENAGO,VIA ZELEDRIA 4/C,4/C,38080,93
94,,,TRENTO,BONDONE,VIA G. VERDI,1,38080,94
95,,,TRENTO,BONDONE,VIA PORTO CAMARELLE,3,38080,95
96,,,TRENTO,BORGO VALSUGANA,VIA PER TORCEGNO,5,38051,96
97,,,TRENTO,BORGO VALSUGANA,CORSO AUSUGUM,90,38051,97
98,,,TRENTO,BORGO VALSUGANA,VIA DEL DOSSO,15,38051,98
99,,,TRENTO,BORGO VALSUGANA,VICOLO JORIS,2/A,38051,99
100,,,TRENTO,BORGO VALSUGANA,VIA MAZZINI,6,38051,100
101,,,TRENTO,BORGO VALSUGANA,LOC. PIAGARO,1,38051,101
102,,,TRENTO,BORGO VALSUGANA,LOC. DOSSO DI SELLA,,38051,102
103,,,TRENTO,BORGO VALSUGANA,LOC. SELLA,,38051,103
104,,,TRENTO,BORGO VALSUGANA,VIA DEL DOSSO,46,38051,104
105,,,TRENTO,BORGO VALSUGANA,LOC. SELLA,,38051,105
106,,,TRENTO,BORGO VALSUGANA,VIA BRIGATA VENEZIA,10,38051,106
107,,,TRENTO,BORGO VALSUGANA,VIA GOZZER,7,38051,107
108,,,TRENTO,BRENTONICO,VIA MANTOVA,8/,38060,108
109,,,TRENTO,BRENTONICO,VIA BUCANEVE,2,38060,109
110,,,TRENTO,BRENTONICO,VIA GARDESANI,15,38060,110
111,,,TRENTO,BRENTONICO,VIA PENEZE,4,38060,111
112,,,TRENTO,BRENTONICO,VIA MONTE VIGNOLA,1,38060,112
113,,,TRENTO,BRENTONICO,LOC. MOSEE,58,38060,113
114,,,TRENTO,BRENTONICO,LOC. SEANDRE,5,38060,114
115,,,TRENTO,BREZ,VIA BARON DE MENGHIN,53,38021,115
116,,,TRENTO,BREZ,FRAZ. TRAVERSARA,11,38021,116
117,,,TRENTO,CADERZONE,VIA MANTOVA,25,38080,117
118,,,TRENTO,CADERZONE,LOC. SANTA MARIA,,38080,118
119,,,TRENTO,CADERZONE,VIA BASSETT,26,38080,119
120,,,TRENTO,CADERZONE,VIA S. GIULIANO,20,38080,120
121,,,TRENTO,CALCERANICA AL LAGO,VIA LUNGOLAGO,42,38050,121
122,,,TRENTO,CALCERANICA AL LAGO,CORSO DEGLI ALPINI,40,38050,122
123,,,TRENTO,CALCERANICA AL LAGO,VIA DELLA SCUOLA,16,38050,123
124,,,TRENTO,CALCERANICA AL LAGO,VIALE VENEZIA,14,38050,124
125,,,TRENTO,CALCERANICA AL LAGO,VIA DEI PESCATORI,1,38050,125
126,,,TRENTO,CALCERANICA AL LAGO,VIALE VENEZIA,6,38050,126
127,,,TRENTO,CALCERANICA AL LAGO,VIA PENISOLA VERDE,5,38050,127
128,,,TRENTO,CALCERANICA AL LAGO,VIALE TRENTO,42,38050,128
129,,,TRENTO,CALCERANICA AL LAGO,VIA LUNGO LAGO,70,38050,129
130,,,TRENTO,CALDES,VIA DI SAN ROCCO,11/A,38022,130
131,,,TRENTO,CALDES,LOC. GLARE,1,38022,131
132,,,TRENTO,CALDES,VIA DEL BRENZ,49,38022,132
133,,,TRENTO,CALDES,VIA MICHELE COMINI,47,38022,133
134,,,TRENTO,CALDES,VIA DELLA CALCARA,33,38022,134
135,,,TRENTO,CALDONAZZO,LOC. BRENTA,55,38052,135
136,,,TRENTO,CALDONAZZO,VIA ROMA,50,38052,136
137,,,TRENTO,CALDONAZZO,VIA LUNGOLAGO,4,38052,137
138,,,TRENTO,CALDONAZZO,VIA MONTEROVERE,1,38052,138
139,,,TRENTO,CAMPITELLO DI FASSA,STREDA ROMA,31,38031,139
140,,,TRENTO,CAMPITELLO DI FASSA,STREDA DE COL DE FELIZE,1,38031,140
141,,,TRENTO,CAMPITELLO DI FASSA,VIA DOLOMITI,106,38031,141
142,,,TRENTO,CAMPITELLO DI FASSA,VIA SALIN,52,38031,142
143,,,TRENTO,CAMPITELLO DI FASSA,PIAZ VEIE,16,38031,143
144,,,TRENTO,CAMPITELLO DI FASSA,STREDA CIADENAC,3,38031,144
145,,,TRENTO,CAMPITELLO DI FASSA,STREDA DE GREVA,39,38031,145
146,,,TRENTO,CAMPITELLO DI FASSA,STREDA DE CERCENA',114,38031,146
147,,,TRENTO,CAMPITELLO DI FASSA,STREDA DE PENT DE SERA,30,38031,147
148,,,TRENTO,CAMPITELLO DI FASSA,STRADA DE CERCENA',13,38031,148
149,,,TRENTO,CAMPITELLO DI FASSA,STREDA DE CERCENA',50,38031,149
150,,,TRENTO,CAMPITELLO DI FASSA,STREDA DOLOMITES,103,38031,150
151,,,TRENTO,CAMPITELLO DI FASSA,STREDA DOLOMITES,12,38031,151
152,,,TRENTO,CAMPITELLO DI FASSA,STREDA DE CERCENA' 12,12,38031,152
153,,,TRENTO,CAMPITELLO DI FASSA,PIAZ DE CIAMPEDEL,20/,38031,153
154,,,TRENTO,CAMPITELLO DI FASSA,STREDA DEL PONZ,14,38031,154
155,,,TRENTO,CAMPITELLO DI FASSA,STREDA ROMA,6,38031,155
156,,,TRENTO,CAMPITELLO DI FASSA,STREDA DOLOMITES,28/,38031,156
157,,,TRENTO,CAMPITELLO DI FASSA,STREDA DOLOMITES,109,38031,157
158,,,TRENTO,CAMPITELLO DI FASSA,STREDA DOLOMITES,60,38031,158
159,,,TRENTO,CAMPITELLO DI FASSA,STREDA DOLOMITES,94,38031,159
160,,,TRENTO,CAMPODENNO,VIA CASTEL BELASI,8,38010,160
161,,,TRENTO,CAMPODENNO,VIA CASTEL LA SANTA,4,38010,161
162,,,TRENTO,CAMPODENNO,VIA SOI',12,38010,162
163,,,TRENTO,CANAL SAN BOVO,LOCALITA' SIMBOLDA,88,38050,163
164,,,TRENTO,CANAL SAN BOVO,LOC. GIARONI,1/P,38050,164
165,,,TRENTO,CANAL SAN BOVO,LOC. VILLANUOVA,22/A,38050,165
166,,,TRENTO,CANAL SAN BOVO,LOCALITA' REVEDEA,45/A,38050,166
167,,,TRENTO,CANAZEI,VIA DE PALUA,1,38032,167
168,,,TRENTO,CANAZEI,STREDA DO VEISC,60,38032,168
169,,,TRENTO,CANAZEI,STREDA (VIA) DE PAREDA,2,38032,169
170,,,TRENTO,CANAZEI,STREDA DEL PIZ,9,38032,170
171,,,TRENTO,CANAZEI,VIA STRÃÂDA DE PAREDA,57,38032,171
172,,,TRENTO,CANAZEI,STREDA DE CIAMPAC,7,38032,172
173,,,TRENTO,CANAZEI,STREDA DE COSTA,20,38032,173
174,,,TRENTO,CANAZEI,VIA CAMPAZ,16,38032,174
175,,,TRENTO,CANAZEI,ANTERSIEF,14,38030,175
176,,,TRENTO,CANAZEI,STREDA FRANZ DANTONE,29,38032,176
177,,,TRENTO,CANAZEI,STREDA DE MAGOA,6,38032,177
178,,,TRENTO,CANAZEI,STREDA DE PAREDA,60,38032,178
179,,,TRENTO,CANAZEI,STREDA DE CONTRIN,27/A,38032,179
180,,,TRENTO,CANAZEI,STREDA DO RUF DE ANTERMONT,35,38032,180
181,,,TRENTO,CANAZEI,STREDA DE DOLAVILLA,62,38030,181
182,,,TRENTO,CANAZEI,STREDA DE TREVE,82,38032,182
183,,,TRENTO,CANAZEI,STREDA DOLOMITES,52,38032,183
184,,,TRENTO,CANAZEI,STREDA DOLOMITES,50,38032,184
185,,,TRENTO,CANAZEI,STREDA DE COSTA,149,38030,185
186,,,TRENTO,CANAZEI,STREDA DE CUCH,93,38030,186
187,,,TRENTO,CANAZEI,STREDA DE CIAMPAC,1,38032,187
188,,,TRENTO,CANAZEI,STREDA DOLOMITES,155,38032,188
189,,,TRENTO,CANAZEI,STREDA DE  CONTRIN,36,38032,189
190,,,TRENTO,CANAZEI,STREDA DOLAVILLA,7,38032,190
191,,,TRENTO,CANAZEI,STREDA DE TREVE,86,38032,191
192,,,TRENTO,CANAZEI,STREDA DO VEISC,15,38030,192
193,,,TRENTO,CANAZEI,STREDA DE PORDOI,65,38032,193
194,,,TRENTO,CANAZEI,STREDA DE COSTA,90,38032,194
195,,,TRENTO,CANAZEI,STREDA DE CIAMP TRUJAN,26,38032,195
196,,,TRENTO,CANAZEI,STREDA DE COSTA,69/,38030,196
197,,,TRENTO,CANAZEI,STREDA DE PAREDA,99,38032,197
198,,,TRENTO,CANAZEI,STREDA DEL CUCH,97,38030,198
199,,,TRENTO,CANAZEI,VIA DE PAREDA,89,38032,199
200,,,TRENTO,CANAZEI,STREDA DOLOMITES,10,38032,200
201,,,TRENTO,CANAZEI,STREDA DE COL DA RONCH,17,38032,201
202,,,TRENTO,CANAZEI,STREDA DE COSTA,185,38030,202
203,,,TRENTO,CANAZEI,STREDA DO RUF DE SORACREPA,8,38032,203
204,,,TRENTO,CARANO,LOC. AGUAI,17,38033,204
205,,,TRENTO,CARANO,VIA F. TOMMASI,28,38033,205
206,,,TRENTO,CARANO,LOCALITA' CELA,4A,38033,206
207,,,TRENTO,CARANO,LOC. CALVELLO,10,38033,207
208,,,TRENTO,CARANO,VIA COLTURA,2,38033,208
209,,,TRENTO,CARANO,VIA PAREDON,5,38033,209
210,,,TRENTO,CARANO,VIA GIOVANELLI,67/A,38033,210
211,,,TRENTO,CARISOLO,VIA CAMPIGLIO,1,38080,211
212,,,TRENTO,CARISOLO,VAL DI GENOVA,5,38080,212
213,,,TRENTO,CARISOLO,LOC. ANTICA VETRERIA,4,38080,213
214,,,TRENTO,CARISOLO,VIA CAMPIGLIO,14,38080,214
215,,,TRENTO,CARZANO,VIA VILLA,20,38050,215
216,,,TRENTO,CARZANO,VIA 18 SETTEMBRE,18,38050,216
217,,,TRENTO,CASTEL CONDINO,VIA GIOVANNI PRATI,6,38082,217
218,,,TRENTO,CASTELFONDO,VIA MOLINET,10,38020,218
219,,,TRENTO,CASTELFONDO,LOC. SENTIERI,12,38020,219
220,,,TRENTO,CASTELLO-MOLINA DI FIEMME,SALITA ALLA PARROCCHIA,10,38030,220
221,,,TRENTO,CASTELLO-MOLINA DI FIEMME,VIA TRENTO,25,38030,221
222,,,TRENTO,CASTELLO-MOLINA DI FIEMME,VIA ROMA,12,38030,222
223,,,TRENTO,CASTELLO-MOLINA DI FIEMME,VIA MILANO,20,38030,223
224,,,TRENTO,CASTELLO-MOLINA DI FIEMME,VIA CEMBRA,12,38030,224
225,,,TRENTO,CASTELLO-MOLINA DI FIEMME,VIA DEI TIGLI,61,38030,225
226,,,TRENTO,CASTELLO-MOLINA DI FIEMME,VIA DOLOMITI,27,38030,226
227,,,TRENTO,CASTELLO-MOLINA DI FIEMME,LOC. CADINO AL TABIA',,38030,227
228,,,TRENTO,CASTELLO TESINO,LOC. MOLINI,17,38053,228
229,,,TRENTO,CASTELLO TESINO,VIA FRATELLI BALLERIN,12/B,38053,229
230,,,TRENTO,CASTELLO TESINO,LOC. FRADEA,4,38053,230
231,,,TRENTO,CASTELLO TESINO,LOC. CELADO,52,38053,231
232,,,TRENTO,CASTELLO TESINO,LOC. CELADO,,38053,232
233,,,TRENTO,CASTELLO TESINO,LOC. SOTTOMOLIZZA,1,38053,233
234,,,TRENTO,CASTELNUOVO,VIA BROLETTI,4/,38050,234
235,,,TRENTO,CASTELNUOVO,PIAZZA MUNICIPIO,10,38050,235
236,,,TRENTO,CAVALESE,VIA VIAZZI LONGHI,3,38033,236
237,,,TRENTO,CAVALESE,VIA DEI MOLINI,3,38033,237
238,,,TRENTO,CAVALESE,VIA MARCO,38,38033,238
239,,,TRENTO,CAVALESE,VIA DAIANO,3,38033,239
240,,,TRENTO,CAVALESE,VIA CARANO,32,38033,240
241,,,TRENTO,CAVALESE,VIA PILLOCCO,1,38033,241
242,,,TRENTO,CAVALESE,LOC. CHELO',,38033,242
243,,,TRENTO,CAVALESE,VIA MARCO,,38033,243
244,,,TRENTO,CAVALESE,VIA MARCO,95,38033,244
245,,,TRENTO,CAVALESE,VIA AURORA,2,38033,245
246,,,TRENTO,CAVALESE,LOC. MARCO,1,38033,246
247,,,TRENTO,CAVALESE,VIA CHIESA,66,38033,247
248,,,TRENTO,CAVARENO,VIA ROEN,2,38011,248
249,,,TRENTO,CAVARENO,LOC. CAMPI GOLF,26,38011,249
250,,,TRENTO,CAVARENO,VIA G. MARCONI,9,38011,250
251,,,TRENTO,CAVARENO,VIA G. MARCONI,9,38011,251
252,,,TRENTO,CAVEDAGO,VIA DE LA VIOLA,10,38010,252
253,,,TRENTO,CAVEDINE,VIA PALON,17,38070,253
254,,,TRENTO,CAVEDINE,VIA LUNGO LAGO,23,38073,254
255,,,TRENTO,CAVEDINE,VIA CASINA,3,38070,255
256,,,TRENTO,CAVEDINE,VIA S. UDALRICO,1,38073,256
257,,,TRENTO,CAVIZZANA,S.V. CIV.,26/A,38022,257
258,,,TRENTO,CINTE TESINO,LOC. MONTE MEZZA,,38050,258
259,,,TRENTO,CINTE TESINO,VIA DEL MOLETA,23,38050,259
260,,,TRENTO,CINTE TESINO,VIA DEL PERTEGANTE,40,38050,260
261,,,TRENTO,CIS,FRAZ. MOSTIZZOLO,10,38020,261
262,,,TRENTO,CIVEZZANO,FRAZ. MAGNAGO,9,38045,262
263,,,TRENTO,CLES,VIA CASTELLO,7,38023,263
264,,,TRENTO,CLES,VIA TIBERIO CLAUDIO,8,38023,264
265,,,TRENTO,CLES,FRAZ. MAIANO,7,38023,265
266,,,TRENTO,CLES,VIA E. CHINI,19,38023,266
267,,,TRENTO,COMMEZZADURA,VIA DELL'ANGIOL,11,38020,267
268,,,TRENTO,COMMEZZADURA,STRADA ALLA CENTRALE,2,38020,268
269,,,TRENTO,COMMEZZADURA,VIA DELLE CASE NUOVE,2,38020,269
270,,,TRENTO,COMMEZZADURA,VIA GUADI,2,38020,270
271,,,TRENTO,COMMEZZADURA,VIA DELL'ANGIOL,3,38020,271
272,,,TRENTO,COMMEZZADURA,VIA NAZIONALE,32,38020,272
273,,,TRENTO,CROVIANA,VIA A LA FOSINA,6,38027,273
274,,,TRENTO,CROVIANA,VIA DEI MORI,3,38027,274
275,,,TRENTO,CROVIANA,VIA DI CARBONARA,22,38027,275
276,,,TRENTO,DENNO,VIA CASTEL ENNO,,38010,276
277,,,TRENTO,DRENA,VIA SEGANTINI,31,38074,277
278,,,TRENTO,DRENA,LOC. MASO MICHELOTTI,24,38074,278
279,,,TRENTO,DRENA,VIA AL CASTELLO,,38074,279
280,,,TRENTO,DRENA,LOC. SALIM,1,38074,280
281,,,TRENTO,DRO,VIA ALLA BUSA,6,38070,281
282,,,TRENTO,DRO,VIA DEGASPERI,1,38074,282
283,,,TRENTO,DRO,VIA PIER ANTONIO MICHELOTTI,8B,38074,283
284,,,TRENTO,DRO,VIA DEI COLLI,2/A,38074,284
285,,,TRENTO,DRO,VIA ROMA,35/A,38074,285
286,,,TRENTO,DRO,VICOLO TERMINE,19,38074,286
287,,,TRENTO,DRO,VIA PRATI,37,38074,287
288,,,TRENTO,DRO,VIA TORRE,10,38074,288
289,,,TRENTO,DRO,VIA CESARE BATTISTI,29/B,38074,289
290,,,TRENTO,DRO,VIA PARINI,5,38070,290
291,,,TRENTO,DRO,VIA MASO MAROCCO,26,38074,291
292,,,TRENTO,DRO,VIA TORRE,6,38074,292
293,,,TRENTO,DRO,VIALE DAINO,43,38074,293
294,,,TRENTO,DRO,VIA ROMA,8,38074,294
295,,,TRENTO,DRO,LOC. SANTA LUCIA,1,38074,295
296,,,TRENTO,FAEDO,VIA PINETA,15,38010,296
297,,,TRENTO,FAEDO,LOC. CADINO,1,38010,297
298,,,TRENTO,FAEDO,VIA BRENNERO,10,38010,298
299,,,TRENTO,FAI DELLA PAGANELLA,PIAZZA ITALIA UNITA,16,38010,299
300,,,TRENTO,FAI DELLA PAGANELLA,VIA MADONNA DEL LAVORO,9,38010,300
301,,,TRENTO,FAI DELLA PAGANELLA,VIA TRENTO,7,38010,301
302,,,TRENTO,FIAVE',LOC. BALLINO,19,38070,302
303,,,TRENTO,FIAVE',VIA DEI LAGHI,6,38075,303
304,,,TRENTO,FIAVE',VIA SAN ZENO,55,38075,304
305,,,TRENTO,FIAVE',VIA S. ZENO,73,38075,305
306,,,TRENTO,FIAVE',VIA BLEGGIO,48,38075,306
307,,,TRENTO,FIAVE',VIA TRE NOVEMBRE,93,38075,307
308,,,TRENTO,FOLGARIA,LOC. CARPENEDA,34,38064,308
309,,,TRENTO,FOLGARIA,VIA AI CADUTI DI MALGA ZONTA,11,38064,309
310,,,TRENTO,FOLGARIA,VIA PASUBIO,137,38064,310
311,,,TRENTO,FOLGARIA,VIA PAPA GIOVANNI XXIII,18,38064,311
312,,,TRENTO,FOLGARIA,LOC. FRANCOLINI,40,38064,312
313,,,TRENTO,FOLGARIA,VIA XXV APRILE,33,38064,313
314,,,TRENTO,FOLGARIA,VIA CARDUCCI,120,38064,314
315,,,TRENTO,FOLGARIA,VIA MADONNA DELLE GRAZIE,111,38064,315
316,,,TRENTO,FOLGARIA,VIA A. EINSTEIN,,38064,316
317,,,TRENTO,FOLGARIA,VIA FABIO FILZI,56,38064,317
318,,,TRENTO,FOLGARIA,VIA ANTONIO CANOVA,29,38064,318
319,,,TRENTO,FOLGARIA,VIA PATRONA DEGLI SCIATORI,119,38064,319
320,,,TRENTO,FOLGARIA,VIA L. CADORNA,9,38064,320
321,,,TRENTO,FOLGARIA,VIA MONTE CORNETTO,28,38064,321
322,,,TRENTO,FOLGARIA,VIA DEGASPERI,43,38064,322
323,,,TRENTO,FOLGARIA,VIA MADONNA DELLE GRAZIE,83,38064,323
324,,,TRENTO,FONDO,VIA GARIBALDI,22,38013,324
325,,,TRENTO,FONDO,VIA LAGO SMERALDO,26,38013,325
326,,,TRENTO,FONDO,VIA SANTA LUCIA,14,38013,326
327,,,TRENTO,FONDO,VIA PRINCIPALE,4,38013,327
328,,,TRENTO,GARNIGA TERME,VIA CA' DI SOPRA,11,38060,328
329,,,TRENTO,GIOVO,VIA SANT'ANTONIO,8,38030,329
330,,,TRENTO,GIOVO,VIA DEI BOSCATI,9,38030,330
331,,,TRENTO,GIOVO,VIA CARRAIA,15,38030,331
332,,,TRENTO,GIUSTINO,VIA PINETA,7/A,38086,332
333,,,TRENTO,GRIGNO,LOC. BARRICATA ,,38055,333
334,,,TRENTO,IMER,VIA DOLOMITI,50,38050,334
335,,,TRENTO,IMER,VIA SUOR SERAFINA MICHELI,32,38050,335
336,,,TRENTO,IMER,LOC. I MASI,6,38050,336
337,,,TRENTO,IMER,VIA VILLAGGIO SASS MAOR,36,38050,337
338,,,TRENTO,ISERA,PIAZZA S. VINCENZO,1,38060,338
339,,,TRENTO,ISERA,VIA C. VANNETTI,8,38060,339
340,,,TRENTO,ISERA,VIA MAZZOLE,2,38060,340
341,,,TRENTO,ISERA,VIA GALVAGNI,4,38060,341
342,,,TRENTO,ISERA,VIA MAZZINI,4,38060,342
343,,,TRENTO,ISERA,LOC. PIAZI,9,38060,343
344,,,TRENTO,ISERA,VIA MONTEGRAPPA,1,38060,344
345,,,TRENTO,LAVARONE,LOC. OSELI,27,38046,345
346,,,TRENTO,LAVARONE,VIA TRIESTE,36,38046,346
347,,,TRENTO,LAVARONE,LOC. GIONGHI,92,38046,347
348,,,TRENTO,LAVARONE,LOC. GIONGHI,2,38046,348
349,,,TRENTO,LAVARONE,VIA GIONGHI,10/A,38046,349
350,,,TRENTO,LAVARONE,LOC. MILLEGROBBE,1/C,38046,350
351,,,TRENTO,LAVIS,VIA ROSMINI,66,38015,351
352,,,TRENTO,LAVIS,VIA NAZIONALE,64,38010,352
353,,,TRENTO,LEVICO TERME,VIALE ROMA,42,38056,353
354,,,TRENTO,LEVICO TERME,VIA G. PRATI,27,38056,354
355,,,TRENTO,LEVICO TERME,VICOLO DEL RIO,3,38056,355
356,,,TRENTO,LEVICO TERME,VIA PER SANTA GIULIANA,5,38056,356
357,,,TRENTO,LEVICO TERME,VIA G. GAIGHER,4,38056,357
358,,,TRENTO,LEVICO TERME,SALITA AL CASTELLO,2,38056,358
359,,,TRENTO,LEVICO TERME,VIA PER VETRIOLO,36,38056,359
360,,,TRENTO,LEVICO TERME,VIA MONTEPANAROTTA,55,38056,360
361,,,TRENTO,LEVICO TERME,VIA CROCEFISSO,17,38056,361
362,,,TRENTO,LEVICO TERME,VIA DEI MOLINI,1,38056,362
363,,,TRENTO,LEVICO TERME,LOC. COSTA,3,38056,363
364,,,TRENTO,LEVICO TERME,LOC. PLEINA,5,38056,364
365,,,TRENTO,LEVICO TERME,VIA DEI FORTI,8,38056,365
366,,,TRENTO,LEVICO TERME,STRADA DEI SIORI,,38056,366
367,,,TRENTO,LEVICO TERME,VIA AL DAZIO,8,38056,367
368,,,TRENTO,LEVICO TERME,VIA AL DAZIO,8,38056,368
369,,,TRENTO,LEVICO TERME,STRADA  DEI FORTI,15,38056,369
370,,,TRENTO,LEVICO TERME,STRADA PROVINCIALE PER VETRIOLO,20,38056,370
371,,,TRENTO,LEVICO TERME,VIA MASO MONTEL,31,38056,371
372,,,TRENTO,MALE',LOC. MONDENT ,,38027,372
373,,,TRENTO,MALE',VIA TRENTO,59,38027,373
374,,,TRENTO,MALE',FRAZ. MAGRAS,2,38027,374
375,,,TRENTO,MALE',FRAZ. ARNAGO,45,38027,375
376,,,TRENTO,MALE',VIA ALLA CROCE,13,38027,376
377,,,TRENTO,MALE',VIA TRENTO,55/A,38027,377
378,,,TRENTO,MALE',VIA VERONA,1,38027,378
379,,,TRENTO,MALE',VIA ALLA FILANDA,8,38027,379
380,,,TRENTO,MALE',VIA MERANO,17,38027,380
381,,,TRENTO,MALOSCO,VIA DEL DOSS,35,38013,381
382,,,TRENTO,MALOSCO,VIA MARCONI,12,38013,382
383,,,TRENTO,MALOSCO,VIALE ALPINO,11,38013,383
384,,,TRENTO,MAZZIN,STREDA MADONA DE LOURDES,718,38031,384
385,,,TRENTO,MAZZIN,VIA DOLOMITI,12,38031,385
386,,,TRENTO,MAZZIN,VIA ANTERMOJA,62B,38031,386
387,,,TRENTO,MAZZIN,STREDA DE CHIUSURA,11/,38031,387
388,,,TRENTO,MAZZIN,STREDA DE DONA,125,38031,388
389,,,TRENTO,MAZZIN,STREDA DONA,108/,38031,389
390,,,TRENTO,MAZZIN,STREDA DONA,128,38031,390
391,,,TRENTO,MAZZIN,STREDA DE PIAN,44,38031,391
392,,,TRENTO,MAZZIN,VIA CATINACCIO,4,38031,392
393,,,TRENTO,MEZZANA,VIA PER MARILLEVA 900,900,38020,393
394,,,TRENTO,MEZZANA,FRAZ.ORTISE',7,38020,394
395,,,TRENTO,MEZZANA,VIA DELL GANE,2,38020,395
396,,,TRENTO,MEZZANA,VIA DEL MAS BRUSA',2,38020,396
397,,,TRENTO,MEZZANA,VIA PER MARILLEVA,26,38020,397
398,,,TRENTO,MEZZANA,LOC. MARILLEVA 1400,1400,38020,398
399,,,TRENTO,MEZZANA,LOC. MARILLEVA 1400,1400,38020,399
400,,,TRENTO,MEZZANA,LOCALITA' MARILLEVA 900,900,38020,400
401,,,TRENTO,MEZZANA,LOC,1400,38020,401
402,,,TRENTO,MEZZANA,LOC. MARILLEVA 900,900,38020,402
403,,,TRENTO,MEZZANA,VIA DEI RONCHI,1,38020,403
404,,,TRENTO,MEZZANA,LOC. MARILLEVA 1400,1400,38020,404
405,,,TRENTO,MEZZANA,VIA PER MARILLEVA,32,38020,405
406,,,TRENTO,MEZZANA,VIA 4 NOVEMBRE,4,38020,406
407,,,TRENTO,MEZZANA,LOCALITA' MARILLEVA 1400,1400,38020,407
408,,,TRENTO,MEZZANO,LOC. LOZEN,1,38050,408
409,,,TRENTO,MEZZANO,VIA CARRAIA,3,38050,409
410,,,TRENTO,MEZZANO,VIA DELLE BASSE,23,38050,410
411,,,TRENTO,MEZZANO,VIA MOLAREN,29,38050,411
412,,,TRENTO,MEZZOCORONA,VIA BORGO NUOVO,57,38016,412
413,,,TRENTO,MEZZOCORONA,VIA S. MARCO,5,38016,413
414,,,TRENTO,MEZZOCORONA,VIA S. ANTONIO,34,38016,414
415,,,TRENTO,MEZZOCORONA,VIA 4 NOVEMBRE,4,38016,415
416,,,TRENTO,MEZZOCORONA,VIA ALLA GROTTA,29,38016,416
417,,,TRENTO,MEZZOLOMBARDO,VIA ROMA,58,38017,417
418,,,TRENTO,MEZZOLOMBARDO,VIA E. DE VARDA,28,38017,418
419,,,TRENTO,MEZZOLOMBARDO,VIA CANEVARIE,43,38017,419
420,,,TRENTO,MEZZOLOMBARDO,CORSO DEL POPOLO,28,38017,420
421,,,TRENTO,MEZZOLOMBARDO,VIA D. CHIESA,2/,38017,421
422,,,TRENTO,MOENA,STRADA DE SALGE',53,38035,422
423,,,TRENTO,MOENA,VIA VAL S.MARIA,14,38035,423
424,,,TRENTO,MOENA,STRADA VALENTINO POSCHIAVIN,16,38035,424
425,,,TRENTO,MOENA,STRADA SASLONCH,47,38035,425
426,,,TRENTO,MOENA,STRADA DE SEN PELEGRIN,37,38035,426
427,,,TRENTO,MOENA,STRADA SASLONCH,174,38035,427
428,,,TRENTO,MOENA,STRADA DE SEN ROCH,4,38035,428
429,,,TRENTO,MOENA,STRADA DE DOSBUDON,8,38035,429
430,,,TRENTO,MOENA,LOC. PASSO SAN PELLEGRINO,3,38035,430
431,,,TRENTO,MOLVENO,PIAZZA MARCONI,24,38018,431
432,,,TRENTO,MOLVENO,VIA A. FOGAZZARO,17,38018,432
433,,,TRENTO,MOLVENO,VIA BELVEDERE,47,38018,433
434,,,TRENTO,MOLVENO,VIA GIUSEPPE GARIBALDI,32,38018,434
435,,,TRENTO,MOLVENO,VIA LUNGOLAGO,27,38018,435
436,,,TRENTO,MOLVENO,VIA CIMA TOSA,15,38018,436
437,,,TRENTO,MOLVENO,VIA PAGANELLA,21,38018,437
438,,,TRENTO,MOLVENO,VIA NAZIONALE,11,38018,438
439,,,TRENTO,MOLVENO,VIA LUNGOLAGO,4,38018,439
440,,,TRENTO,MOLVENO,VIA NAZIONALE N. 15,15,38018,440
441,,,TRENTO,MOLVENO,VIA LUNGOLAGO,2,38018,441
442,,,TRENTO,MOLVENO,VIA DOLOMITI,2,38018,442
443,,,TRENTO,MORI,VIA DEL GARDA,85,38065,443
444,,,TRENTO,MORI,VIA G. MODENA,71,38065,444
445,,,TRENTO,MORI,PIAZZA CAL DI PONTE,22,38065,445
446,,,TRENTO,MORI,VIA DELLA CONCORDIA,7/A,38065,446
447,,,TRENTO,MORI,PIAZZA CESARE BATTISTI,5,38065,447
448,,,TRENTO,MORI,LOC. PIZZOLE,2,38065,448
449,,,TRENTO,MORI,FRAZ. SANO,42,38065,449
450,,,TRENTO,MORI,VIA MARCONI,10,38065,450
451,,,TRENTO,NAGO-TORBOLE,VIA STRADA GRANDA,133,38069,451
452,,,TRENTO,NAGO-TORBOLE,VIA MATTEOTTI,76,38069,452
453,,,TRENTO,NAGO-TORBOLE,VIA SARCA VECCHIO,,38069,453
454,,,TRENTO,NAGO-TORBOLE,LOC. AL COR,23,38069,454
455,,,TRENTO,NAGO-TORBOLE,VIA STRADA GRANDA,53,38069,455
456,,,TRENTO,NAGO-TORBOLE,VIA DI COIZE,41,38069,456
457,,,TRENTO,NAGO-TORBOLE,VIA MATTEOTTI,11,38069,457
458,,,TRENTO,NAGO-TORBOLE,VIA SCIPIO SIGHELE,8,38069,458
459,,,TRENTO,NAGO-TORBOLE,LOCALITA' DOSSE,2,38069,459
460,,,TRENTO,NAGO-TORBOLE,VIA DI COIZE,10,38069,460
461,,,TRENTO,NAGO-TORBOLE,STRADA GRANDA,3,38069,461
462,,,TRENTO,NAGO-TORBOLE,VIA AL COR,2/A,38069,462
463,,,TRENTO,NAGO-TORBOLE,STRADA VECCHIA,27,38069,463
464,,,TRENTO,NAGO-TORBOLE,VIA MATTEOTTI,63,38069,464
465,,,TRENTO,NAGO-TORBOLE,VIA AL COR,4,38069,465
466,,,TRENTO,NAGO-TORBOLE,VIA AL COR,3,38069,466
467,,,TRENTO,NAGO-TORBOLE,VIA ALLE PESCHERE,2,38069,467
468,,,TRENTO,NAGO-TORBOLE,VIA BENACO,12,38069,468
469,,,TRENTO,NAGO-TORBOLE,VIA TOM DEL SARCA,1,38069,469
470,,,TRENTO,NAGO-TORBOLE,VIA FITTA,4,38069,470
471,,,TRENTO,NAGO-TORBOLE,VIA DEL SARCA VECCHIO,35,38069,471
472,,,TRENTO,NAGO-TORBOLE,VIA BENACO,15,38069,472
473,,,TRENTO,NAGO-TORBOLE,VIA STRADA GRANDA,84,38069,473
474,,,TRENTO,NAGO-TORBOLE,STRADA GRANDA,16,38069,474
475,,,TRENTO,NAGO-TORBOLE,VIA STRADA GRANDA,2,38069,475
476,,,TRENTO,NAGO-TORBOLE,VIA VITTORIO VENETO,18,38069,476
477,,,TRENTO,NAGO-TORBOLE,VIA MATTEOTTI,82,38069,477
478,,,TRENTO,NAGO-TORBOLE,VIA DELLA LOVA,22,38069,478
479,,,TRENTO,NAGO-TORBOLE,VIA STRADA PICCOLA,42,38069,479
480,,,TRENTO,NAGO-TORBOLE,VIA STRADA GRANDA,7,38069,480
481,,,TRENTO,NOGAREDO,VIA CONTI LODRON,5,38060,481
482,,,TRENTO,NOGAREDO,VIA MASO,2,38060,482
483,,,TRENTO,NOGAREDO,VIA DEI PIVI,7,38060,483
484,,,TRENTO,OSPEDALETTO,VIA ROMA,31/C,38050,484
485,,,TRENTO,OSSANA,VIA DELLA CROCE,4,38026,485
486,,,TRENTO,OSSANA,STRADA DEL FOSSA',14,38026,486
487,,,TRENTO,OSSANA,VIA VENEZIA,10,38026,487
488,,,TRENTO,OSSANA,VIA DI SOTTO PILA,2,38026,488
489,,,TRENTO,OSSANA,PIAZZA S. VIGILIO,6,38026,489
490,,,TRENTO,OSSANA,STRADA DEI BOSCHI,3,38026,490
491,,,TRENTO,PANCHIA',VIA COSTA,30,38030,491
492,,,TRENTO,PANCHIA',VIA GIANTRETTEL,8,38030,492
493,,,TRENTO,RONZO-CHIENIS,VIA AI PIANI,1,38060,493
494,,,TRENTO,PEIO,VIA AL CERCEN,55,38020,494
495,,,TRENTO,PEIO,LOC. STAVELIN,,38020,495
496,,,TRENTO,PEIO,VIA DEI CAVAI,23,38020,496
497,,,TRENTO,PEIO,VIA DELLE CORT,12,38020,497
498,,,TRENTO,PEIO,VIA 24 MAGGIO,24,38020,498
499,,,TRENTO,PEIO,VIA DI VAL COMASEN,2,38020,499
500,,,TRENTO,PEIO,LOC. DOSSI DI CAVIA,3,38020,500
501,,,TRENTO,PEIO,VIA ROMA,61,38020,501
502,,,TRENTO,PEIO,VIA AL SANT,10,38020,502
503,,,TRENTO,PEIO,VIA RIVA,27,38020,503
504,,,TRENTO,PELLIZZANO,VIA SIMONE LENNER,20,38020,504
505,,,TRENTO,PELLIZZANO,VIA SIMONE LENNER,18/B,38020,505
506,,,TRENTO,PELLIZZANO,VIA CIPRIANO VALLORSA,4,38020,506
507,,,TRENTO,PELLIZZANO,VIA CIPRIANO VALLORSA,18,38020,507
508,,,TRENTO,PELLIZZANO,PIAZZA DI OGNANO,5,38020,508
509,,,TRENTO,PELUGO,VIA NAZIONALE,53,38080,509
510,,,TRENTO,PERGINE VALSUGANA,PIAZZA SERRA,2,38057,510
511,,,TRENTO,PERGINE VALSUGANA,VIA PINETANA,21,38057,511
512,,,TRENTO,PERGINE VALSUGANA,LOC. MASO TOLDI,5,38057,512
513,,,TRENTO,PERGINE VALSUGANA,VIA PONTARA,20/D,38057,513
514,,,TRENTO,PERGINE VALSUGANA,STRADA AI MASI DI MEZZO,22,38057,514
515,,,TRENTO,PERGINE VALSUGANA,VIA DEI LOZERI,35,38057,515
516,,,TRENTO,PERGINE VALSUGANA,VIA SAN MARTINO,12,38057,516
517,,,TRENTO,PERGINE VALSUGANA,VIA DEI CORTELLINI,2/B,38057,517
518,,,TRENTO,PERGINE VALSUGANA,VA DON G. SOPPERRA,25/B,38057,518
519,,,TRENTO,PERGINE VALSUGANA,VIA MADONNA DI LORETO,47,38057,519
520,,,TRENTO,PERGINE VALSUGANA,LOC. VALAR,8,38057,520
521,,,TRENTO,PERGINE VALSUGANA,STRADA PER MASI DI MEZZO,14,38057,521
522,,,TRENTO,PERGINE VALSUGANA,VIA DI MEZZOLAGO,2,38057,522
523,,,TRENTO,PERGINE VALSUGANA,VIA DEI PESCATORI,49,38057,523
524,,,TRENTO,PERGINE VALSUGANA,LOC. MORETTA DI SOTTO,1,38057,524
525,,,TRENTO,PERGINE VALSUGANA,VIALE EUROPA,11/,38057,525
526,,,TRENTO,PIEVE TESINO,LOCALITA' VAL MALENE,,38050,526
527,,,TRENTO,PIEVE TESINO,LOC. QUISTAON,2,38050,527
528,,,TRENTO,PIEVE TESINO,VIA A. DEGASPERI,19,38050,528
529,,,TRENTO,PIEVE TESINO,VIA F.LLI RIZZA',18,38050,529
530,,,TRENTO,PINZOLO,LOC. FRATE',,38086,530
531,,,TRENTO,PINZOLO,VIALE MARCONI,22,38086,531
532,,,TRENTO,PINZOLO,VIALE MARCONI,46,38086,532
533,,,TRENTO,PINZOLO,VIA CARE' ALTO,9,38086,533
534,,,TRENTO,PINZOLO,VIA VAL BRENTA,74,38086,534
535,,,TRENTO,PINZOLO,VAL NAMBRONE,1,38086,535
536,,,TRENTO,PINZOLO,PIAZZA RIGHI,2,38086,536
537,,,TRENTO,PINZOLO,VIA GENOVA,103/B,38086,537
538,,,TRENTO,PINZOLO,VIA DOLOMITI DI BRENTA,45,38080,538
539,,,TRENTO,PINZOLO,VAL BRENTA,72,38086,539
540,,,TRENTO,PINZOLO,VIA FUCINE,49/B,38086,540
541,,,TRENTO,PINZOLO,LOC. LE POZZE,19,38080,541
542,,,TRENTO,PINZOLO,LOC. MAGNABO',2,38086,542
543,,,TRENTO,PINZOLO,LOC. FAE',1,38086,543
544,,,TRENTO,PINZOLO,VIA DOLOMITI DI BRENTA,14/,38086,544
545,,,TRENTO,PINZOLO,VIA ALLO STADIO,21,38086,545
546,,,TRENTO,PINZOLO,VIA GENOVA,24,38086,546
547,,,TRENTO,PINZOLO,VIA DELLE MASERE,19,38086,547
548,,,TRENTO,PINZOLO,VIALE MARCONI,38,38086,548
549,,,TRENTO,PINZOLO,VIA COLLINI,8,38086,549
550,,,TRENTO,PINZOLO,VIA BOLOGNINI,60,38086,550
551,,,TRENTO,PINZOLO,VIA TORRE DEL BRENTA,2,38086,551
552,,,TRENTO,PINZOLO,VIA DELLA PACE,1,38086,552
553,,,TRENTO,PINZOLO,VIA MONTE SPINALE,49,38084,553
554,,,TRENTO,PINZOLO,VIA CAMPANIL BASSO,24,38086,554
555,,,TRENTO,PINZOLO,VIA GIACOMO MATTEOTTI,5,38086,555
556,,,TRENTO,POMAROLO,VIA PASINI,64,38060,556
557,,,TRENTO,POZZA DI FASSA,STRADA VEIA DE MUNCION,59,38036,557
558,,,TRENTO,POZZA DI FASSA,TROI MAERINS,6,38036,558
559,,,TRENTO,POZZA DI FASSA,VIA TITA PIAZ,18/B,38036,559
560,,,TRENTO,POZZA DI FASSA,LOC. SAUCH,9,38036,560
561,,,TRENTO,POZZA DI FASSA,STRADA DE PUCIA,6,38036,561
562,,,TRENTO,POZZA DI FASSA,STRADA DE RUF DE RUACIA,15,38036,562
563,,,TRENTO,POZZA DI FASSA,STRADA DOLOMITES,190,38036,563
564,,,TRENTO,POZZA DI FASSA,STRADA VAJOLET,3,38036,564
565,,,TRENTO,POZZA DI FASSA,VIA DOLOMITES,203,38036,565
566,,,TRENTO,POZZA DI FASSA,STRADA DE DASCE',4,38036,566
567,,,TRENTO,POZZA DI FASSA,VIA S. LORENZO,20,38036,567
568,,,TRENTO,POZZA DI FASSA,STRADA DE LA CIUCIAA,2,38036,568
569,,,TRENTO,POZZA DI FASSA,STRADA DE SORA VAC,86,38036,569
570,,,TRENTO,POZZA DI FASSA,VIA TROI DE SPENA 4/18,4/,38036,570
571,,,TRENTO,POZZA DI FASSA,VIA TROI DE VICH,41/,38036,571
572,,,TRENTO,POZZA DI FASSA,STRADA DOLOMITES,112,38030,572
573,,,TRENTO,POZZA DI FASSA,VIA CAVOUR,5,38036,573
574,,,TRENTO,POZZA DI FASSA,STRADA DE LA VEISC,20,38036,574
575,,,TRENTO,POZZA DI FASSA,STRADA RUF DE RUACIA,8,38036,575
576,,,TRENTO,POZZA DI FASSA,STRADA TROI DE VICH,62,38036,576
577,,,TRENTO,POZZA DI FASSA,VIA TITA PIAZ,25/,38030,577
578,,,TRENTO,POZZA DI FASSA,VIA COL DA PRA',45,38036,578
579,,,TRENTO,POZZA DI FASSA,STREDA DOLOMITES,136,38036,579
580,,,TRENTO,POZZA DI FASSA,STR. MAESTRA PAOLINA,4,38036,580
581,,,TRENTO,POZZA DI FASSA,STRADA JUMELA,36,38036,581
582,,,TRENTO,POZZA DI FASSA,STRADA DOLOMITES,140,38036,582
583,,,TRENTO,PREDAZZO,CORSO DOLOMITI,45/B,38037,583
584,,,TRENTO,PREDAZZO,LOC. CAMPO,,38037,584
585,,,TRENTO,PREDAZZO,VIA MINGHETTI,9/C,38037,585
586,,,TRENTO,PREDAZZO,VICOLO DEL CAORER,3,38037,586
587,,,TRENTO,PREDAZZO,CORSO DOLOMITI,51/B,38037,587
588,,,TRENTO,PREDAZZO,VICOLO DEL CAORER,24/,38037,588
589,,,TRENTO,PREDAZZO,VIA MINGHETTI,20/A,38037,589
590,,,TRENTO,PREDAZZO,VIA SARONCH,16,38037,590
591,,,TRENTO,PREDAZZO,LOC. ALL'ISCHIA SOTTO SASSA,2,38037,591
592,,,TRENTO,PREDAZZO,VIA CECE,16,38037,592
593,,,TRENTO,PREDAZZO,VIA VENEZIA,54,38037,593
594,,,TRENTO,PREDAZZO,VIA LAGORAI,9,38037,594
595,,,TRENTO,PREDAZZO,VIA PRAI DE MONT,64,38037,595
596,,,TRENTO,RABBI,LOC. SCOLARI,151,38020,596
597,,,TRENTO,RABBI,FRAZ,298/B,38020,597
598,,,TRENTO,RABBI,LOC. PLAN,167,38020,598
599,,,TRENTO,RABBI,VIA PAROLOTTI,136,38020,599
600,,,TRENTO,RABBI,VIA SAN BERNARDO,36/G,38020,600
601,,,TRENTO,RABBI,LOC. COLER,316/E,38020,601
602,,,TRENTO,RABBI,LOC. TASSE',1/C,38020,602
603,,,TRENTO,RABBI,VIA CRESPION,56,38020,603
604,,,TRENTO,RABBI,LOCALITA' COLER,,38020,604
605,,,TRENTO,RABBI,FRAZ. SAN BERNARDO,115,38020,605
606,,,TRENTO,RABBI,FRAZ. PRACORNO,111,38020,606
607,,,TRENTO,RABBI,LOC. PRALONGO,221/D,38020,607
608,,,TRENTO,RABBI,LOC. MALGA MONTE SOLE,,38020,608
609,,,TRENTO,RABBI,FRAZ. SAN BERNARDO,193/Q,38020,609
610,,,TRENTO,REVO',VIA DEI CONTI ARSIO,19,38028,610
611,,,TRENTO,REVO',VIA DEI CONTI ARSIO,13,38028,611
612,,,TRENTO,REVO',VIA 4 NOVEMBRE,4,38028,612
613,,,TRENTO,RIVA DEL GARDA,VIA LONGA,18,38066,613
614,,,TRENTO,RIVA DEL GARDA,VIA BALLINO,5/A,38066,614
615,,,TRENTO,RIVA DEL GARDA,PIAZZA TRE NOVEMBRE,35,38066,615
616,,,TRENTO,RIVA DEL GARDA,VIA BRIONE,30,38066,616
617,,,TRENTO,RIVA DEL GARDA,VIA MAZZANO,27,38066,617
618,,,TRENTO,RIVA DEL GARDA,VIA UDINE,2,38066,618
619,,,TRENTO,RIVA DEL GARDA,VIA BRIONE,30/A,38066,619
620,,,TRENTO,RIVA DEL GARDA,VIALE ROMA,20,38066,620
621,,,TRENTO,RIVA DEL GARDA,VIA GARGNANO,4,38066,621
622,,,TRENTO,RIVA DEL GARDA,VIALE MARTIRI XXVIII GIUGNO,4,38066,622
623,,,TRENTO,RIVA DEL GARDA,LOC. DEVA,4,38066,623
624,,,TRENTO,RIVA DEL GARDA,VIA MARONE,13,38066,624
625,,,TRENTO,RIVA DEL GARDA,VIA RESTEL DE FER,12,38066,625
626,,,TRENTO,RIVA DEL GARDA,VIA VICENZA,3,38066,626
627,,,TRENTO,RIVA DEL GARDA,VIA ROVIGO,15,38066,627
628,,,TRENTO,RIVA DEL GARDA,VIA VIRGILIO,44,38066,628
629,,,TRENTO,RIVA DEL GARDA,VIA BALTERA,25,38066,629
630,,,TRENTO,RIVA DEL GARDA,LOCALITA' RONCAGLIE,1/A,38066,630
631,,,TRENTO,RIVA DEL GARDA,VIA IPPOLITO PEDERZOLLI,11,38066,631
632,,,TRENTO,RIVA DEL GARDA,LOC. PREGASINA,20,38060,632
633,,,TRENTO,RIVA DEL GARDA,LOCALITA' ALBOLETTA,12,38066,633
634,,,TRENTO,RIVA DEL GARDA,VIA GIACOMO BOZZONI,42,38066,634
635,,,TRENTO,RIVA DEL GARDA,VIA IPPOLITO PEDERZOLLI,5,38066,635
636,,,TRENTO,RIVA DEL GARDA,VIA ARDARO,8,38066,636
637,,,TRENTO,RIVA DEL GARDA,VIALE DANTE,80,38066,637
638,,,TRENTO,RIVA DEL GARDA,VIA DISCIPLINI,28,38066,638
639,,,TRENTO,RIVA DEL GARDA,VIA ARDARO,58,38066,639
640,,,TRENTO,RIVA DEL GARDA,VIA ROVIGO,19,38066,640
641,,,TRENTO,RIVA DEL GARDA,VIALE CATTONI,16/A,38066,641
642,,,TRENTO,RIVA DEL GARDA,VIA ALBOLA,14,38066,642
643,,,TRENTO,RIVA DEL GARDA,VIA FILANDA,37/A,38066,643
644,,,TRENTO,RIVA DEL GARDA,VIA DELL'ALBOLA,31,38066,644
645,,,TRENTO,RIVA DEL GARDA,VIALE DANTE ALIGHIERI,80,38066,645
646,,,TRENTO,RIVA DEL GARDA,VIA DIAZ,24,38066,646
647,,,TRENTO,RIVA DEL GARDA,VIALE ROVERETO,112,38066,647
648,,,TRENTO,RIVA DEL GARDA,VIA BRIONE,30/B,38066,648
649,,,TRENTO,RIVA DEL GARDA,VIALE ROVERETO,100,38066,649
650,,,TRENTO,RIVA DEL GARDA,VIA BRIONE,32,38066,650
651,,,TRENTO,RIVA DEL GARDA,VIA ARDARO,51,38066,651
652,,,TRENTO,RIVA DEL GARDA,VIA ROVIGO,28/D,38066,652
653,,,TRENTO,RIVA DEL GARDA,VIA DEL CORVO,6,38066,653
654,,,TRENTO,RIVA DEL GARDA,VIALE ROVERETO,120,38066,654
655,,,TRENTO,RIVA DEL GARDA,VIALE ROVERETO,47/A,38066,655
656,,,TRENTO,RIVA DEL GARDA,VIA KAFKA,13,38066,656
657,,,TRENTO,RIVA DEL GARDA,VIA TREVISO,4,38066,657
658,,,TRENTO,RIVA DEL GARDA,VIA DEI FABBRI,29,38066,658
659,,,TRENTO,RIVA DEL GARDA,PIAZZA GARIBALDI,3,38066,659
660,,,TRENTO,RIVA DEL GARDA,VIALE TRENTO,112,38066,660
661,,,TRENTO,RIVA DEL GARDA,VIALE ROMA,28,38066,661
662,,,TRENTO,RIVA DEL GARDA,VIA IPPOLITO PEDERZOLLI,4,38066,662
663,,,TRENTO,RIVA DEL GARDA,VIA DEL CORVO,9,38066,663
664,,,TRENTO,RIVA DEL GARDA,VIALE DANTE,5,38066,664
665,,,TRENTO,RIVA DEL GARDA,VIA MONTE BRIONE,15/B,38066,665
666,,,TRENTO,RIVA DEL GARDA,VIA MONTE BRIONE,6,38066,666
667,,,TRENTO,RIVA DEL GARDA,VIA S. GIACOMO,48,38066,667
668,,,TRENTO,RIVA DEL GARDA,LOCALITA' PASINA,49,38066,668
669,,,TRENTO,RIVA DEL GARDA,VIA DEL CORVO,6,38066,669
670,,,TRENTO,RIVA DEL GARDA,VIA MAROCCO,27,38066,670
671,,,TRENTO,RIVA DEL GARDA,VIA LONGA,13,38066,671
672,,,TRENTO,RIVA DEL GARDA,VIALE VANNETTI,5,38066,672
673,,,TRENTO,RIVA DEL GARDA,VIALE PERNICI,2,38066,673
674,,,TRENTO,RIVA DEL GARDA,VIA FIUME,17,38066,674
675,,,TRENTO,RIVA DEL GARDA,VIA ARDARO,58,38066,675
676,,,TRENTO,RIVA DEL GARDA,VIA HEINRICH E THOMAS MANN,6,38066,676
677,,,TRENTO,RIVA DEL GARDA,VIALE ROVERETO,23,38066,677
678,,,TRENTO,RIVA DEL GARDA,VIA GIACOMO BOZZONI,8,38066,678
679,,,TRENTO,RIVA DEL GARDA,VIALE ROVERETO,134,38066,679
680,,,TRENTO,RIVA DEL GARDA,VIA S. ALESSANDRO,51,38066,680
681,,,TRENTO,RIVA DEL GARDA,LOC. SAN TOMMASO,53,38066,681
682,,,TRENTO,RIVA DEL GARDA,VIA S. ALESSANDRO,3,38066,682
683,,,TRENTO,RIVA DEL GARDA,VIA IÃÂ° MAGGIO,38,38066,683
684,,,TRENTO,RIVA DEL GARDA,PIAZZA CAVOUR,10,38066,684
685,,,TRENTO,ROMALLO,VIA PER SAN BIAGIO,6,38020,685
686,,,TRENTO,ROMALLO,VIA DAMIANO CHIESA,13,38020,686
687,,,TRENTO,ROMALLO,VIA G. PANCHERI,13,38020,687
688,,,TRENTO,ROMENO,VIA S. BIAGIO,5,38010,688
689,,,TRENTO,RONCEGNO,LOC. MASO VAZZENA,,38050,689
690,,,TRENTO,RONCEGNO,LOC. PAICOFL,,38050,690
691,,,TRENTO,RONCEGNO,LOC. TESOBBO,11,38050,691
692,,,TRENTO,RONCEGNO,VIA LONGORE,2/A,38050,692
693,,,TRENTO,RONZONE,VIA ROEN,6,38010,693
694,,,TRENTO,RONZONE,VIA MENDOLA,73/,38010,694
695,,,TRENTO,ROVERE' DELLA LUNA,VIA CESARE BATTISTI,9,38030,695
696,,,TRENTO,ROVERE' DELLA LUNA,VIA 4 NOVEMBRE,4,38030,696
697,,,TRENTO,ROVERETO,VIA COLLE AMENO,6,38068,697
698,,,TRENTO,ROVERETO,PIAZZA FABIO FILZI,11,38068,698
699,,,TRENTO,ROVERETO,VIA VALLUNGA I,14,38068,699
700,,,TRENTO,ROVERETO,VIA MONTE GRAPPA,1,38068,700
701,,,TRENTO,ROVERETO,VIA SAN GIOVANNI BOSCO,36,38068,701
702,,,TRENTO,ROVERETO,VIALE TRENTO,2,38068,702
703,,,TRENTO,ROVERETO,VIA DELLA TERRA,41,38068,703
704,,,TRENTO,ROVERETO,VIA SANTA MARIA,5,38068,704
705,,,TRENTO,ROVERETO,VIA CASTELDANTE,20,38068,705
706,,,TRENTO,ROVERETO,VIA UNIONE,102,38068,706
707,,,TRENTO,ROVERETO,VIA MAIOLICHE,54,38068,707
708,,,TRENTO,ROVERETO,VIA MONTE PIPEL,8,38068,708
709,,,TRENTO,ROVERETO,VIA BEZZI,30,38068,709
710,,,TRENTO,ROVERETO,VIALE DELLA VITTORIA,82,38068,710
711,,,TRENTO,ROVERETO,VIA LUNGO LENO SINISTRO,48,38068,711
712,,,TRENTO,ROVERETO,VIA SANTA MARIA,49,38068,712
713,,,TRENTO,ROVERETO,VIA TRIESTE,35,38068,713
714,,,TRENTO,ROVERETO,VIA AI FIORI,21,38068,714
715,,,TRENTO,ROVERETO,VIA PASUBIO,68,38068,715
716,,,TRENTO,ROVERETO,VIALE ZUGNA,35,38068,716
717,,,TRENTO,ROVERETO,CORSO VERONA,115,38068,717
718,,,TRENTO,ROVERETO,VIA CITTADELLA,41,38068,718
719,,,TRENTO,ROVERETO,VIALE DEI COLLI,28,38068,719
720,,,TRENTO,ROVERETO,SALITA DEL DOSSO,32,38068,720
721,,,TRENTO,ROVERETO,VIA DELLA ROGGIA 45/A LOC. BALDRESCA,45/A,38068,721
722,,,TRENTO,ROVERETO,P.LE ORSI,25,38068,722
723,,,TRENTO,ROVERETO,VIA LEONARDO DA VINCI,60/A,38068,723
724,,,TRENTO,ROVERETO,VICOLO DEL MESSAGGERO,6,38068,724
725,,,TRENTO,ROVERETO,VIA DELLE SCUOLE,18,38068,725
726,,,TRENTO,RUMO,VIA MOCENIGO,46/C,38020,726
727,,,TRENTO,RUMO,VIA MOCENIGO,80,38020,727
728,,,TRENTO,RUMO,VIA MARCENA,43/A,38020,728
729,,,TRENTO,SAGRON MIS,VIA PASSO CEREDA,12,38050,729
730,,,TRENTO,SAGRON MIS,VIA CAMPAGNA,11,38050,730
731,,,TRENTO,SAGRON MIS,VIA CAMPAGNA,19,38050,731
732,,,TRENTO,SAN MICHELE ALL'ADIGE,VIA TONALE,24,38010,732
733,,,TRENTO,SANT'ORSOLA TERME,LOCALITA' SIMONEI,1,38050,733
734,,,TRENTO,SANT'ORSOLA TERME,LOC. PIZOI,7,38050,734
735,,,TRENTO,SANT'ORSOLA TERME,LOCALITA' STEFANI,5,38050,735
736,,,TRENTO,SARNONICO,LOC. CENTRO SPORT VERDE,1,38010,736
737,,,TRENTO,SARNONICO,VIA CESARE BATTISTI,18,38010,737
738,,,TRENTO,SCURELLE,LOC. VAL CAMPELLE,,38050,738
739,,,TRENTO,SCURELLE,LOC. CENONE,,38050,739
740,,,TRENTO,SCURELLE,LOC. PRAI TOMEI,,38050,740
741,,,TRENTO,SEGONZANO,VIA VALCAVA,39,38047,741
742,,,TRENTO,SEGONZANO,FRAZ. GRESTA,28/A,38047,742
743,,,TRENTO,SEGONZANO,LOC. MAGNOLA,1,38047,743
744,,,TRENTO,SEGONZANO,LOC. MADONNA DELL'AIUTO,3,38047,744
745,,,TRENTO,SFRUZ,VIA ROTONDA CREDAI,6,38010,745
746,,,TRENTO,SFRUZ,VIA PREDAIA,13,38010,746
747,,,TRENTO,SFRUZ,VIA MURZENT,1,38010,747
748,,,TRENTO,SORAGA,STRADA DA PALUA,8,38030,748
749,,,TRENTO,SORAGA DI FASSA,STRADA DA PALUA,8,38030,749
750,,,TRENTO,SORAGA,STRADA DE ROISC,8,38030,750
751,,,TRENTO,SORAGA DI FASSA,STRADA DE ROISC,8,38030,751
752,,,TRENTO,SORAGA,PIAZA CIOCH,8,38030,752
753,,,TRENTO,SORAGA DI FASSA,PIAZA CIOCH,8,38030,753
754,,,TRENTO,SORAGA,STRADA DA MOLIN,1,38030,754
755,,,TRENTO,SORAGA DI FASSA,STRADA DA MOLIN,1,38030,755
756,,,TRENTO,SORAGA,STRADA DON SEPON,3,38030,756
757,,,TRENTO,SORAGA DI FASSA,STRADA DON SEPON,3,38030,757
758,,,TRENTO,SORAGA DI FASSA,STRADA DE PONT,4,38030,758
759,,,TRENTO,SORAGA,STRADA DE PONT,4,38030,759
760,,,TRENTO,SOVER,LOCALITÃÂ SVESERI,22,38048,760
761,,,TRENTO,SOVER,LOC. FACENDI,13,38048,761
762,,,TRENTO,SPIAZZO,LOCALITA' TRES,,38088,762
763,,,TRENTO,SPIAZZO,FRAZIONE FISTO,61,38088,763
764,,,TRENTO,SPIAZZO,VAL BORZAGO,,38088,764
765,,,TRENTO,SPORMAGGIORE,VIA DELLE ANDRONE,15,38010,765
766,,,TRENTO,SPORMAGGIORE,VIA FONTANELE,100,38010,766
767,,,TRENTO,SPORMINORE,VIA SPOREGGIO,32,38010,767
768,,,TRENTO,SPORMINORE,LOC. MASO TRENTINI,,38010,768
769,,,TRENTO,STENICO,VIALE BRIGATA TORINO,7,38070,769
770,,,TRENTO,STENICO,VIA DEI DOSSI,3,38070,770
771,,,TRENTO,STENICO,LOC. VAL D'AGOLA,,38070,771
772,,,TRENTO,STENICO,VIA LEONE SALVINI,4,38070,772
773,,,TRENTO,STORO,LOC. FASERNO,,38089,773
774,,,TRENTO,STREMBO,VIA L. FANTOMA,17,38080,774
775,,,TRENTO,STREMBO,VIA MILANO,19,38080,775
776,,,TRENTO,TELVE,VIA G. FEDELE,2,38050,776
777,,,TRENTO,TELVE,LOC. CALAMENTO,28,38050,777
778,,,TRENTO,TELVE,LOC. MUSIERA DI SOTTO,,38050,778
779,,,TRENTO,TELVE,LOC. MALGA CERE,1,38050,779
780,,,TRENTO,TELVE DI SOPRA,LOCALITA' SUERTA,,38050,780
781,,,TRENTO,TENNO,VILLA CANALE,35,38060,781
782,,,TRENTO,TENNO,VIA DEI LAGHI,109,38060,782
783,,,TRENTO,TENNO,VIA NINO PERNICI,20,38060,783
784,,,TRENTO,TENNO,PIAZZA CESARE BATTISTI,26,38060,784
785,,,TRENTO,TENNO,LOC. VOLTA DE NO,82,38060,785
786,,,TRENTO,TENNO,FRAZ. VILLA CANALE,33,38060,786
787,,,TRENTO,TENNO,LOC. LAGO DI TENNO,7,38060,787
788,,,TRENTO,TENNO,LOC. MATONI,10,38060,788
789,,,TRENTO,TENNO,LOCALITA' LAGO DI TENNO,26,38060,789
790,,,TRENTO,TENNO,PIAZZA S. LEONARDO,14,38060,790
791,,,TRENTO,TERRAGNOLO,LOC. ZENCHERI,3,38060,791
792,,,TRENTO,TERRAGNOLO,FRAZ. GEROLI,33,38060,792
793,,,TRENTO,TERZOLAS,VIA DEI FALIDONI,32,38027,793
794,,,TRENTO,TERZOLAS,VIA AI CAPPUCCINI,1,38027,794
795,,,TRENTO,TESERO,VIA LAGO,11,38038,795
796,,,TRENTO,TESERO,VIA FIA,21,38038,796
797,,,TRENTO,TESERO,VIA PEDONDA,37,38038,797
798,,,TRENTO,TESERO,LOC. STAVA,31,38038,798
799,,,TRENTO,TESERO,PIAZZA NUOVA,18,38038,799
800,,,TRENTO,TESERO,VIA FIA,26/A,38038,800
801,,,TRENTO,TESERO,VIA CAVADA,35,38038,801
802,,,TRENTO,TESERO,VIA TRESSELUME,1,38038,802
803,,,TRENTO,TESERO,VIA PROPIAN,4,38038,803
804,,,TRENTO,TESERO,VIA ARESTIEZZA,3,38038,804
805,,,TRENTO,TESERO,LOCALITÃÂ PAMPEAGO,,38038,805
806,,,TRENTO,TIONE DI TRENTO,LOCALITÃÂ CAPPELER,,38079,806
807,,,TRENTO,TIONE DI TRENTO,VIA PER SCRANIGA,29,38079,807
808,,,TRENTO,TIONE DI TRENTO,LOC. TRAGOLE,,38079,808
809,,,TRENTO,TIONE DI TRENTO,VIA DEI MONTI,37,38079,809
810,,,TRENTO,TON,LOC. RAUT,6,38010,810
811,,,TRENTO,TON,LOC. BASTIANELLI,15,38010,811
812,,,TRENTO,TORCEGNO,LOC. LOBEA,1,38050,812
813,,,TRENTO,TRENTO,VIA SS. COSMA E DAMIANO,21/,38122,813
814,,,TRENTO,TRENTO,VIA SALE',8,38123,814
815,,,TRENTO,TRENTO,STRADA STRETTA,1,38123,815
816,,,TRENTO,TRENTO,SALITA DELLA SPALLIERA,3,38121,816
817,,,TRENTO,TRENTO,STRADA DELLE NOVALINE,42,38123,817
818,,,TRENTO,TRENTO,VIA DELLA SALUGA,3/B,38122,818
819,,,TRENTO,TRENTO,VIA SS. COSMA E DAMIANO,17/A,38100,819
820,,,TRENTO,TRENTO,VIA S.S. COSMA E DAMIANO,19,38121,820
821,,,TRENTO,TRENTO,LOCALITA' AI BOLLERI,42,38121,821
822,,,TRENTO,TRENTO,VIA GOCCIADORO,156,38122,822
823,,,TRENTO,TRENTO,VIA BELENZANI,42,38122,823
824,,,TRENTO,TRENTO,VIA ALLE COSTE,24,38121,824
825,,,TRENTO,TRENTO,VIA DEI VALONI,16,38050,825
826,,,TRENTO,TRENTO,VIA ALLA VEDUTA,134/B,38050,826
827,,,TRENTO,TRENTO,VIA DEL DOS CALT,4,38070,827
828,,,TRENTO,TRENTO,VIA CAVOUR,34,38122,828
829,,,TRENTO,TRENTO,VICOLO DEI BIRRI,3,38122,829
830,,,TRENTO,TRENTO,VIA C. ANDREATTA,13,38121,830
831,,,TRENTO,TRENTO,VIA ROMAGNOSI,26,38122,831
832,,,TRENTO,TRENTO,VIA ARMANDO DIAZ,5,38122,832
833,,,TRENTO,TRENTO,VIA DELLE CAVE,77,38122,833
834,,,TRENTO,TRENTO,VIA DELLA SPALLIERA,1,38121,834
835,,,TRENTO,TRENTO,VIA DEL PONTE,12,38040,835
836,,,TRENTO,TRENTO,PIAZZETTA P. DIEGO LAINEZ,1,38121,836
837,,,TRENTO,TRENTO,VIA S. VIGILIO,4,38122,837
838,,,TRENTO,TRENTO,VIA MURALTA,13/,38121,838
839,,,TRENTO,TRENTO,VIA MAFFEI,1,38122,839
840,,,TRENTO,TRENTO,VIA SLOP,17/,38123,840
841,,,TRENTO,TRENTO,VIA TORRE VANGA,14,38122,841
842,,,TRENTO,TRENTO,VIA R. GUARDINI,42,38121,842
843,,,TRENTO,TRENTO,VIA CENTRALE,32/A,38123,843
844,,,TRENTO,TRENTO,VIA SAN PIO X,75,38122,844
845,,,TRENTO,TRENTO,VIA ZARA,8/C,38122,845
846,,,TRENTO,TRENTO,VIA TARAMELLI,3,38122,846
847,,,TRENTO,TRENTO,VIA AL BRAIDON,11,38123,847
848,,,TRENTO,TRENTO,VIA MAZZINI,4,38122,848
849,,,TRENTO,TRENTO,VICOLO MADRUZZO,8,38122,849
850,,,TRENTO,TRENTO,VIA DEL PRA' DE L'AGNELA,28,38121,850
851,,,TRENTO,TRENTO,VIA ROMA,27,38122,851
852,,,TRENTO,TRENTO,VIA TORRE VANGA,14,38122,852
853,,,TRENTO,TRENTO,VIA ROMA,27,38122,853
854,,,TRENTO,TRENTO,VICOLO CRISTOFORO MADRUZZO,6,38122,854
855,,,TRENTO,TRENTO,VIA PER VILLAMONTAGNA,54,38121,855
856,,,TRENTO,TRENTO,VIA VITTORIO VENETO,92,38122,856
857,,,TRENTO,TRENTO,VIA TORRE VANGA,14,38122,857
858,,,TRENTO,TRENTO,VIA LASTE,2,38121,858
859,,,TRENTO,TRENTO,VIA GABBIOLO,22,38123,859
860,,,TRENTO,TRENTO,VIA SS. COSMA E DAMIANO,94,38121,860
861,,,TRENTO,TRENTO,VIA GALASSA,45,38050,861
862,,,TRENTO,TRENTO,SALITA DELLA SPALLIERA,4,38122,862
863,,,TRENTO,TRENTO,VIA ALLE PORTE,71,38123,863
864,,,TRENTO,TRENTO,VIA SAN PIO X,44,38122,864
865,,,TRENTO,TRENTO,VIA ALDO SCHMID,5,38121,865
866,,,TRENTO,TRENTO,VIA PER VILLAMONTAGNA,12,38121,866
867,,,TRENTO,TRENTO,VIA CALEPINA,12,38122,867
868,,,TRENTO,TRENTO,VIA DEL SUFFRAGIO,50,38122,868
869,,,TRENTO,TRENTO,VICOLO DEL VO' 27,27,38122,869
870,,,TRENTO,TRENTO,PIAZZA FIERA,9,38122,870
871,,,TRENTO,TRENTO,PIAZZA DELLA MOSTRA,25,38122,871
872,,,TRENTO,TRENTO,VIA DELLA MALVASIA,77,38121,872
873,,,TRENTO,TRENTO,VIA PINARA,12,38123,873
874,,,TRENTO,TRENTO,VIA ALLA VAL,61,38050,874
875,,,TRENTO,TRENTO,VIA MARIGHETTO,28,38123,875
876,,,TRENTO,TRENTO,VIA DEI SOLTERI,61,38121,876
877,,,TRENTO,TRENTO,STRADA DI CANDRIAI,2,38070,877
878,,,TRENTO,TRENTO,VIA AL CASTELLER,22,38123,878
879,,,TRENTO,TRENTO,VIA G. MAZZINI,14/T,38122,879
880,,,TRENTO,TRENTO,VIA LIVIO MARCHETTI,32,38122,880
881,,,TRENTO,TRENTO,VIA MALTA,5,38122,881
882,,,TRENTO,TRENTO,VIA G. MATTEOTTI,85,38122,882
883,,,TRENTO,TRENTO,VIA SAN PIO X,75,38122,883
884,,,TRENTO,TRENTO,STRADA DELLE NOVALINE,44,38123,884
885,,,TRENTO,TRENTO,VIA CAURIOL,7,38122,885
886,,,TRENTO,TRENTO,PIAZZA DUOMO,30,38122,886
887,,,TRENTO,TRENTO,VIA DIETRO LE MURA,6,38122,887
888,,,TRENTO,TRENTO,VIA PASSO CIMIRLO,81,38123,888
889,,,TRENTO,TRENTO,VIA DI PRALUNGO,3,38121,889
890,,,TRENTO,TRENTO,VIA ALLE LASTE,22,38121,890
891,,,TRENTO,TRENTO,STRADA DI CANDRIAI,15,38123,891
892,,,TRENTO,TRENTO,STRADA DI CADINE,33,38123,892
893,,,TRENTO,TRENTO,PIAZZETTA NICOLA RASMO,3,38100,893
894,,,TRENTO,TRENTO,VIA BELENZANI,46,38122,894
895,,,TRENTO,TRENTO,PIAZZA DONNE LAVORATRICI,13,38122,895
896,,,TRENTO,TRENTO,VIA BOLZANO,21/B,38121,896
897,,,TRENTO,TRENTO,PIAZZA VENEZIA,12,38122,897
898,,,TRENTO,TRENTO,VIA MANCI,44,38122,898
899,,,TRENTO,TRENTO,LOC. VASON DI MONTE BONDONE,17,38123,899
900,,,TRENTO,TRENTO,VIA SOPRASSASSO,32,38014,900
901,,,TRENTO,TRENTO,VIA TORRE VANGA,9,38122,901
902,,,TRENTO,VALLARSA,FRAZ. ARLANCH,8,38060,902
903,,,TRENTO,VALLARSA,FRAZ. PIAZZA,21,38060,903
904,,,TRENTO,VALLARSA,FRAZ. ANGHEBENI,81/A,38060,904
905,,,TRENTO,VALLARSA,FRAZ. ZOCCHIO,9,38060,905
906,,,TRENTO,VALLARSA,FRAZ. PEZZATI,1,38060,906
907,,,TRENTO,VALLARSA,FRAZ. BROZZI,64,38060,907
908,,,TRENTO,VALLARSA,VIA CAMPOSILVANO,75,38060,908
909,,,TRENTO,VARENA,VIA COROZZOLA,12,38030,909
910,,,TRENTO,VARENA,VIA COROZZOLA,12,38030,910
911,,,TRENTO,VARENA,VIA BANCOLINE,1,38030,911
912,,,TRENTO,VARENA,VIA VAIA,4,38030,912
913,,,TRENTO,VARENA,VIA VAL GAMBIS,4,38030,913
914,,,TRENTO,VERMIGLIO,VIA DI BORGO NUOVO,1,38029,914
915,,,TRENTO,VERMIGLIO,VIA DI CORTINA,49,38029,915
916,,,TRENTO,VERMIGLIO,VIA CIRCONVALLAZIONE,23,38029,916
917,,,TRENTO,VERMIGLIO,VIA NAZIONALE 3/D,3/D,38029,917
918,,,TRENTO,VERMIGLIO,VIA CIRCONVALLAZIONE,15,38029,918
919,,,TRENTO,VERMIGLIO,VIA CIRCONVALLAZIONE,5,38029,919
920,,,TRENTO,VIGNOLA-FALESINA,FRAZ. VIGNOLA,108,38050,920
921,,,TRENTO,VIGNOLA-FALESINA,FRAZ. VIGNOLA,106,38050,921
922,,,TRENTO,VIGO DI FASSA,STRADA DE LA PIAZEDELA,9,38039,922
923,,,TRENTO,VIGO DI FASSA,STRADA DE SOMCOSTA,29,38039,923
924,,,TRENTO,VIGO DI FASSA,STRADA REZIA,36,38039,924
925,,,TRENTO,VIGO DI FASSA,STRADA DE LA PIEIF,10,38039,925
926,,,TRENTO,VIGO DI FASSA,STRADA DE PILAT,7,38039,926
927,,,TRENTO,VIGO DI FASSA,STRADA DE TAMION,17,38039,927
928,,,TRENTO,VIGO DI FASSA,VIA SANTA GIULIANA,11,38039,928
929,,,TRENTO,VIGO DI FASSA,STRADA VEIA,3,38039,929
930,,,TRENTO,VIGO DI FASSA,STRADA REZIA,11,38039,930
931,,,TRENTO,VIGO DI FASSA,STRADA DE PRALONGIAL,9/,38039,931
932,,,TRENTO,VIGO DI FASSA,STRADA NEVA,26,38039,932
933,,,TRENTO,VIGO DI FASSA,STRADA DE COLTURA,7,38039,933
934,,,TRENTO,VIGO DI FASSA,STRADA DE COLTURA,1,38039,934
935,,,TRENTO,VIGO DI FASSA,STRADA DE CIUCIAA,1,38039,935
936,,,TRENTO,VIGO DI FASSA,STRADA DE PILAT,10,38039,936
937,,,TRENTO,VIGO DI FASSA,STRADA DE VAL,25,38039,937
938,,,TRENTO,VIGO DI FASSA,STRADA DE SEMAL,3,38039,938
939,,,TRENTO,VIGO DI FASSA,STRADA DE SEMAL,1,38039,939
940,,,TRENTO,VIGO DI FASSA,STRADA REZIA,20,38039,940
941,,,TRENTO,VILLA LAGARINA,VIA R. ZANDONAI,10,38060,941
942,,,TRENTO,VILLA LAGARINA,LOC. CIMANA DEI PRESANI,,38060,942
943,,,TRENTO,VILLA LAGARINA,VIA PESENTI,1,38060,943
944,,,TRENTO,VILLA LAGARINA,LOC. FRATA RIOLFA,,38060,944
945,,,TRENTO,VILLA LAGARINA,VIA M.G. GOSETTI,9,38060,945
946,,,TRENTO,VILLA LAGARINA,LOC. BELLARIA DI CEI,,38060,946
947,,,TRENTO,VILLA LAGARINA,PIAZZA RIOLFATTI,18,38060,947
948,,,TRENTO,VILLA LAGARINA,LOC. LAGO DI CEI,,38060,948
949,,,TRENTO,VOLANO,VIA F. ANDERLE,3,38060,949
950,,,TRENTO,VOLANO,VIA SPIAZZE,38,38060,950
951,,,TRENTO,VOLANO,VIA NAZIONALE,29,38060,951
952,,,TRENTO,VOLANO,VIA TEI,15,38060,952
953,,,TRENTO,ZAMBANA,VIA PER ZAMBANA,,38010,953
954,,,TRENTO,ZIANO DI FIEMME,VIA CASCATELLE,1,38030,954
955,,,TRENTO,ZIANO DI FIEMME,VIA ZANON,10,38030,955
956,,,TRENTO,ZIANO DI FIEMME,VIA ROMA 2/A,2/A,38030,956
957,,,TRENTO,ZIANO DI FIEMME,VIA NAZIONALE,114,38030,957
958,,,TRENTO,COMANO TERME,VIA MARCONI,59,38071,958
959,,,TRENTO,COMANO TERME,VIA C. BATTISTI,21,38077,959
960,,,TRENTO,COMANO TERME,FRAZ. COMANO,12,38070,960
961,,,TRENTO,COMANO TERME,FRAZ. LUNDO,4,38070,961
962,,,TRENTO,COMANO TERME,VIA CESARE BATTISTI,54,38070,962
963,,,TRENTO,COMANO TERME,VIA C. BATTISTI,31/I,38077,963
964,,,TRENTO,COMANO TERME,VIA LUNGOSARCA,45,38070,964
965,,,TRENTO,COMANO TERME,PIAZZA MERCATO,6,38071,965
966,,,TRENTO,COMANO TERME,VIA C. BATTISTI,26,38077,966
967,,,TRENTO,LEDRO,VIA TOVI,12,38067,967
968,,,TRENTO,LEDRO,VIA  MAESTRA TERESA SPAGNOLLI,2,38067,968
969,,,TRENTO,LEDRO,VIA DROMAE',5,38067,969
970,,,TRENTO,LEDRO,VIA BELVEDERE,9,38067,970
971,,,TRENTO,LEDRO,VIA BRI,10/B,38067,971
972,,,TRENTO,LEDRO,VIA B. DAVES,14,38067,972
973,,,TRENTO,LEDRO,VIA SAN CARLO,9,38067,973
974,,,TRENTO,LEDRO,VIA GIACOMO CIS,2,38067,974
975,,,TRENTO,LEDRO,VIA GORNOA,3,38067,975
976,,,TRENTO,LEDRO,VIA ALZER,7,38067,976
977,,,TRENTO,LEDRO,VIA G. MARCONI,11,38067,977
978,,,TRENTO,LEDRO,VIA ALZER,5,38067,978
979,,,TRENTO,LEDRO,VIA MAFFEI,127,38067,979
980,,,TRENTO,LEDRO,VIA DELLA MADONNA,2,38067,980
981,,,TRENTO,LEDRO,VIA VITTORIA,1,38067,981
982,,,TRENTO,LEDRO,VIA DELLA MADONNA,1,38067,982
983,,,TRENTO,LEDRO,VIA ALZER,40,38067,983
984,,,TRENTO,LEDRO,VIA A. PICCOLI,6,38067,984
985,,,TRENTO,LEDRO,VIA VENEZIA,6,38067,985
986,,,TRENTO,LEDRO,VIA MAFFEI,3,38067,986
987,,,TRENTO,LEDRO,VIA ALLA COLONIA,6,38067,987
988,,,TRENTO,LEDRO,VIA CASSONI,28,38067,988
989,,,TRENTO,LEDRO,VIA PRIBRAM,1,38067,989
990,,,TRENTO,LEDRO,PIAZZA INDIPENDENZA,,38067,990
991,,,TRENTO,LEDRO,VIA CIS,20,38067,991
992,,,TRENTO,LEDRO,VIA ALZER,10,38067,992
993,,,TRENTO,LEDRO,VIA ALZER,46,38067,993
994,,,TRENTO,LEDRO,LOC. VAL DEI MOLINI,,38067,994
995,,,TRENTO,LEDRO,VIA NUOVA,70,38067,995
996,,,TRENTO,LEDRO,VIA GARIBALDI,28,38067,996
997,,,TRENTO,LEDRO,VIA SANTA LUCIA,32,38067,997
998,,,TRENTO,PREDAIA,LOC. OSELIERA,11,38010,998
999,,,TRENTO,PREDAIA,VIA COGOL,12,38010,999
1000,,,TRENTO,PREDAIA,VIA TRENTO,41/B,38010,1000
1001,,,TRENTO,PREDAIA,VIA APENA,3,38010,1001
1002,,,TRENTO,PREDAIA,VIA DELLE ANTICHE FONTANE,34,38010,1002
1003,,,TRENTO,PREDAIA,VIA MERLONGA,7,38010,1003
1004,,,TRENTO,PREDAIA,VIA DEL CAPITELLO,5,38010,1004
1005,,,TRENTO,PREDAIA,VIA VENEZIA,4,38010,1005
1006,,,TRENTO,SAN LORENZO DORSINO,FRAZ. ANDOGNO,17,38070,1006
1007,,,TRENTO,SAN LORENZO DORSINO,VIA AL BELVEDERE,1,38078,1007
1008,,,TRENTO,SAN LORENZO DORSINO,VIA DELLE DOLOMITI DI BRENTA,5,38078,1008
1009,,,TRENTO,SAN LORENZO DORSINO,VIA PER PROMEGHIN,35,38078,1009
1010,,,TRENTO,SAN LORENZO DORSINO,VICOLO SANTA MARIA MADDALENA,13,38078,1010
1011,,,TRENTO,SAN LORENZO DORSINO,LOC. NEMBIA,,38078,1011
1012,,,TRENTO,VALDAONE,LOC. MALGA BISSINA,,38080,1012
1013,,,TRENTO,VALDAONE,LOC. MALGA BISSINA,,38080,1013
1014,,,TRENTO,VALDAONE,LOC. RISECH,,38080,1014
1015,,,TRENTO,VALDAONE,LOC. MALGA BISSINA,,38080,1015
1016,,,TRENTO,DIMARO FOLGARIDA,VICOLO AI COMODI,16,38020,1016
1017,,,TRENTO,DIMARO FOLGARIDA,VIA GOLE 154,154,38025,1017
1018,,,TRENTO,DIMARO FOLGARIDA,PIAZZA G. SERRA,3,38025,1018
1019,,,TRENTO,DIMARO FOLGARIDA,VIA MADONNA DELLE NEVI,1,38025,1019
1020,,,TRENTO,DIMARO FOLGARIDA,LOCALITA' LUCH,,38020,1020
1021,,,TRENTO,DIMARO FOLGARIDA,VIA NAZIONALE,1118/B,38020,1021
1022,,,TRENTO,DIMARO FOLGARIDA,VIA TONALE,6,38025,1022
1023,,,TRENTO,DIMARO FOLGARIDA,VIA NAZIONALE,1082,38020,1023
1024,,,TRENTO,DIMARO FOLGARIDA,VIA BRESCIA,55,38020,1024
1025,,,TRENTO,DIMARO FOLGARIDA,VIA GOLE,105,38025,1025
1026,,,TRENTO,DIMARO FOLGARIDA,LOC. PLAUCESA,1,38020,1026
1027,,,TRENTO,DIMARO FOLGARIDA,VIA DEI BONETEI 12,12,38025,1027
1028,,,TRENTO,DIMARO FOLGARIDA,VIA CAMPIGLIO,59,38025,1028
1029,,,TRENTO,DIMARO FOLGARIDA,STRADA DEI MONTI ALTI,6,38025,1029
1030,,,TRENTO,DIMARO FOLGARIDA,STRADA DEI MONTI ALTI,4,38025,1030
1031,,,TRENTO,DIMARO FOLGARIDA,STRADA DELLA CASINA,17,38025,1031
1032,,,TRENTO,PIEVE DI BONO-PREZZO,FRAZ. AGRONE,62,38085,1032
1033,,,TRENTO,ALTAVALLE,LOCALITA' MASO NOLDI,7,38030,1033
1034,,,TRENTO,ALTAVALLE,VIA CAMPAGNA,16,38030,1034
1035,,,TRENTO,ALTAVALLE,VIA FONTANA,20,38030,1035
1036,,,TRENTO,ALTOPIANO DELLA VIGOLANA,VIA DOSS DEL BUE,29,38040,1036
1037,,,TRENTO,ALTOPIANO DELLA VIGOLANA,VIA CASTAGNE',3,38040,1037
1038,,,TRENTO,AMBLAR-DON,VIA ROEN,37,38010,1038
1039,,,TRENTO,AMBLAR-DON,VIA ROEN,8,38011,1039
1040,,,TRENTO,AMBLAR-DON,VIA ROEN,9,38010,1040
1041,,,TRENTO,BORGO CHIESE,VIA MON,16,38083,1041
1042,,,TRENTO,BORGO CHIESE,VIA MON,14,38083,1042
1043,,,TRENTO,BORGO CHIESE,LOC. BRIONE,82,38083,1043
1044,,,TRENTO,BORGO CHIESE,VIA BRIONE,13,38083,1044
1045,,,TRENTO,CASTEL IVANO,SANTA BARBARA,41,38059,1045
1046,,,TRENTO,CASTEL IVANO,SANTA BARBARA,41,38059,1046
1047,,,TRENTO,CASTEL IVANO,VIA S. APOLLONIA,13,38059,1047
1048,,,TRENTO,CASTEL IVANO,VIA S. APOLLONIA,13,38059,1048
1049,,,TRENTO,CASTEL IVANO,VIA AL CASTELLO,1,38059,1049
1050,,,TRENTO,CASTEL IVANO,VIA AL CASTELLO,1,38059,1050
1051,,,TRENTO,CASTEL IVANO,LOC. PRIMALUNETTA,1,38059,1051
1052,,,TRENTO,CASTEL IVANO,LOC. PRIMALUNETTA,1,38059,1052
1053,,,TRENTO,CEMBRA LISIGNAGO,VIA STRADA VECCHIA,145,38030,1053
1054,,,TRENTO,CONTÃÂÃÂ,VIA NAZIONALE,60,38010,1054
1055,,,TRENTO,CONTÃÂÃÂ,VIA SABBIONARE,2,38010,1055
1056,,,TRENTO,CONTÃÂÃÂ,VIA TRENTO,3,38010,1056
1057,,,TRENTO,MADRUZZO,VIA DOSS DEI PINI,2,38076,1057
1058,,,TRENTO,MADRUZZO,VIA LASTA DE L'OMERLIN,36,38072,1058
1059,,,TRENTO,MADRUZZO,LOC. LIMARO',,38070,1059
1060,,,TRENTO,PORTE DI RENDENA,VIA TIONE,89,38080,1060
1061,,,TRENTO,PORTE DI RENDENA,VIA NAZIONALE,75,38080,1061
1062,,,TRENTO,PORTE DI RENDENA,CIVICO 117 ,117,38080,1062
1063,,,TRENTO,PORTE DI RENDENA,VIA SANTA MARIA,5,38080,1063
1064,,,TRENTO,PRIMIERO SAN MARTINO DI CASTROZZA,VIA CAVALLAZZA,24,38054,1064
1065,,,TRENTO,PRIMIERO SAN MARTINO DI CASTROZZA,VIA ZOCHET,10,38054,1065
1066,,,TRENTO,PRIMIERO SAN MARTINO DI CASTROZZA,VIA G. ZECCHINI,3,38054,1066
1067,,,TRENTO,PRIMIERO SAN MARTINO DI CASTROZZA,VIA PASSO ROLLE,59,38054,1067
1068,,,TRENTO,PRIMIERO SAN MARTINO DI CASTROZZA,VIA ISOLABELLA,13/A,38054,1068
1069,,,TRENTO,PRIMIERO SAN MARTINO DI CASTROZZA,LOCALITA' PETINA,,38054,1069
1070,,,TRENTO,PRIMIERO SAN MARTINO DI CASTROZZA,VIA RISORGIMENTO,18/B,38054,1070
1071,,,TRENTO,PRIMIERO SAN MARTINO DI CASTROZZA,VIA RISORGIMENTO,18/A,38054,1071
1072,,,TRENTO,PRIMIERO SAN MARTINO DI CASTROZZA,VIALE PIAVE,42,38054,1072
1073,,,TRENTO,PRIMIERO SAN MARTINO DI CASTROZZA,VIA SOMEDA,1/B,38054,1073
1074,,,TRENTO,PRIMIERO SAN MARTINO DI CASTROZZA,LOCALITÃÂ PEZZE ALTE,,38054,1074
1075,,,TRENTO,PRIMIERO SAN MARTINO DI CASTROZZA,LOC. DOMADOI,,38054,1075
1076,,,TRENTO,PRIMIERO SAN MARTINO DI CASTROZZA,LOC. BUSA,,38054,1076
1077,,,TRENTO,PRIMIERO SAN MARTINO DI CASTROZZA,VIA VALSERENA,8/A,38054,1077
1078,,,TRENTO,PRIMIERO SAN MARTINO DI CASTROZZA,LOC. CASTELPIETRA,1,38054,1078
1079,,,TRENTO,PRIMIERO SAN MARTINO DI CASTROZZA,VIA LAGHETTO,48,38054,1079
1080,,,TRENTO,PRIMIERO SAN MARTINO DI CASTROZZA,FRAZ. SABBIONADE ,,38054,1080
1081,,,TRENTO,PRIMIERO SAN MARTINO DI CASTROZZA,PASSO CEREDA,51,38054,1081
1082,,,TRENTO,PRIMIERO SAN MARTINO DI CASTROZZA,VIA COLBRICON,13,38054,1082
1083,,,TRENTO,PRIMIERO SAN MARTINO DI CASTROZZA,VIA PANZER,20,38054,1083
1084,,,TRENTO,PRIMIERO SAN MARTINO DI CASTROZZA,VIA LAGHETTO,43,38054,1084
1085,,,TRENTO,SELLA GIUDICARIE,LOC. POLINA,,38087,1085
1086,,,TRENTO,TRE VILLE,LOC. GROSTE',,38070,1086
1087,,,TRENTO,TRE VILLE,VIA STORTA,6,38070,1087
1088,,,TRENTO,TRE VILLE,VIA SERAFINI,74,38070,1088
1089,,,TRENTO,TRE VILLE,VAL DI MANEZ,,38070,1089
1090,,,TRENTO,TRE VILLE,VIA STENICO,5,38070,1090
1091,,,TRENTO,TRE VILLE,LOC. PRA' DE LA CASA ,,38070,1091
1092,,,TRENTO,TRE VILLE,LOC. DAONE,,38070,1092
1093,,,TRENTO,VALLELAGHI,LOC. MONTE GAZZA,,38070,1093
1094,,,TRENTO,VALLELAGHI,STRADA LAGHI DI LAMAR,2,38070,1094
1095,,,TRENTO,VALLELAGHI,VIA ROMA,7,38070,1095
1096,,,TRENTO,VALLELAGHI,VIA AL BELVEDERE,31,38070,1096
1097,,,TRENTO,VALLELAGHI,LOC. NARAN,5,38070,1097
1098,,,TRENTO,VALLELAGHI,VIA AL LAGO,5,38070,1098
1099,,,TRENTO,VALLELAGHI,VIA ALLA SELVA FAEDA,15,38070,1099
1100,,,TRENTO,VILLE DÃÂ¢ÃÂÃÂANAUNIA,VIA DI SAN VIGILIO,25,38010,1100
1101,,,TRENTO,VILLE DÃÂ¢ÃÂÃÂANAUNIA,VIA GARIBALDI,5,38010,1101
1102,,,TRENTO,ROVERETO,VIA SETAIOLI,5,38068,1102
1103,,,TRENTO,ROVERETO,VIA TRIESTE,44,38068,1103
1104,,,TRENTO,TRENTO,VIA IV NOVEMBRE,28,38121,1104
1105,,,TRENTO,TRENTO,VIA DEI SOLTERI,97,38121,1105
1106,,,TRENTO,TRENTO,VIA A. AVANCINI,20,38121,1106
1107,,,TRENTO,TRENTO,VIA MILANO,43,38122,1107
1108,,,TRENTO,TRENTO,VIA F. BARBACOVI,22,38122,1108
